LEMUR-2-GREENBERG       
1 42837U 17042N   26068.46200528  .00019778  00000+0  72539-3 0  9997
2 42837  97.3781 249.8007 0009157   4.0119 356.1192 15.27971352473146
STARLINK-35420          
1 66260U 25245AC  26068.86467733  .00023998  00000+0  81961-3 0  9992
2 66260  53.1580 283.0536 0000690 117.2010 242.9061 15.30205280 21281
